OBJECT_NAME,OBJECT_ID,EPOCH,MEAN_MOTION,ECCENTRICITY,INCLINATION,RA_OF_ASC_NODE,ARG_OF_PERICENTER,MEAN_ANOMALY,EPHEMERIS_TYPE,CLASSIFICATION_TYPE,NORAD_CAT_ID,ELEMENT_SET_NO,REV_AT_EPOCH,BSTAR,MEAN_MOTION_DOT,MEAN_MOTION_DDOT
LEMUR-2-FINNIAN,2025-276DX,2026-07-06T03:40:23.816352,15.00543596,.00081281,97.5336,257.5504,31.0182,329.1520,0,U,66782,999,2284,.24129345E-3,.2987E-4,0
LEMUR-2-STARLIGHT,2025-276DY,2026-07-06T04:37:33.812544,14.99280589,.00146803,97.5223,257.1818,73.3562,286.9272,0,U,66783,999,3304,.59904999E-3,.7274E-4,0
LEMUR-2-TARTIFLETTE,2025-276DZ,2026-07-06T04:35:09.096864,14.99273385,.00137039,97.5224,257.1880,81.1242,279.1533,0,U,66784,999,3304,.48588365E-3,.5885E-4,0
LEMUR-2-VUKASIN,2025-276EA,2026-07-05T04:02:30.922944,15.00457120,.0004613,97.5256,256.5396,82.2970,277.8778,0,U,66785,999,3284,.21869E-3,.2695E-4,0
LEMUR-2-HOTSPUR-TOM,2025-276EB,2026-07-06T04:26:16.401120,14.99179411,.00139873,97.5216,257.1593,72.3986,287.8764,0,U,66786,999,3297,.51888665E-3,.6274E-4,0
LEMUR-2-MYRA,2025-276EC,2026-07-06T03:13:09.842016,15.00519047,.0018433,97.5207,257.3957,81.7477,278.5837,0,U,66787,999,3305,.54343E-3,.6819E-4,0
LEMUR-2 FIKRETDENGIZ,2026-004A,2026-07-05T22:59:45.997728,14.88472307,.0010567,97.8024,185.2292,81.5698,278.6716,0,U,67363,999,2607,.53037E-3,.4876E-4,0
TWILIGHT-1 OBJECT B,2026-004B,2026-07-06T11:04:50.268288,14.87773753,.00101615,97.8067,185.7310,70.7734,289.4581,0,U,67364,999,2615,.23978154E-3,.2136E-4,0
LEMUR-2-MARIO-SOUSA,2026-004C,2026-07-06T11:26:56.436576,14.88679800,.00102184,97.7998,185.7354,81.3584,278.8791,0,U,67365,999,2616,.47199034E-3,.4355E-4,0
LEMUR-2-SONNENBLUME,2026-004E,2026-07-06T11:28:48.751392,14.88423791,.00097451,97.7993,185.7134,82.4268,277.8056,0,U,67367,999,2616,.33971274E-3,.3099E-4,0
LEMUR-2-WOBLER,2026-004F,2026-07-05T23:57:52.020000,14.88654041,.0009917,97.8043,185.3822,75.1148,285.1167,0,U,67368,999,2609,.50618E-3,.4672E-4,0
LEMUR-2-GRAM-E-SUE,2026-004H,2026-07-06T11:03:12.701088,14.88563090,.00088546,97.7978,185.7122,84.5797,275.6430,0,U,67370,999,2616,.30445375E-3,.278E-4,0
LEMUR-2-KATIE,2026-004AA,2026-07-05T22:58:18.676704,14.90196965,.0004277,97.8044,185.7372,55.0547,305.1072,0,U,67387,999,2610,.63953E-3,.6145E-4,0
LEMUR-2-HCS-BAZUS,2026-004AB,2026-07-05T22:56:08.083104,14.90229624,.0003673,97.8031,185.7152,54.0963,306.0595,0,U,67388,999,2610,.3498E-3,.3338E-4,0
