LEMUR-2-FINNIAN         
1 66782U 25276DX  26187.15305343  .00002987  00000+0  24129-3 0  9995
2 66782  97.5336 257.5504 0008128  31.0182 329.1520 15.00543596 22842
LEMUR-2-STARLIGHT       
1 66783U 25276DY  26187.19275246  .00007274  00000+0  59905-3 0  9992
2 66783  97.5223 257.1818 0014680  73.3562 286.9272 14.99280589 33048
LEMUR-2-TARTIFLETTE     
1 66784U 25276DZ  26187.19107751  .00005885  00000+0  48588-3 0  9999
2 66784  97.5224 257.1880 0013703  81.1242 279.1533 14.99273385 33046
LEMUR-2-VUKASIN         
1 66785U 25276EA  26186.16841346  .00002695  00000+0  21869-3 0  9990
2 66785  97.5256 256.5396 0004613  82.2970 277.8778 15.00457120 32844
LEMUR-2-HOTSPUR-TOM     
1 66786U 25276EB  26187.18491205  .00006274  00000+0  51889-3 0  9991
2 66786  97.5216 257.1593 0013987  72.3986 287.8764 14.99179411 32979
LEMUR-2-MYRA            
1 66787U 25276EC  26187.13414169  .00006819  00000+0  54343-3 0  9994
2 66787  97.5207 257.3957 0018433  81.7477 278.5837 15.00519047 33050
LEMUR-2 FIKRETDENGIZ    
1 67363U 26004A   26186.95817127  .00004876  00000+0  53037-3 0  9995
2 67363  97.8024 185.2292 0010567  81.5698 278.6716 14.88472307 26078
TWILIGHT-1 OBJECT B     
1 67364U 26004B   26187.46169292  .00002136  00000+0  23978-3 0  9994
2 67364  97.8067 185.7310 0010161  70.7734 289.4581 14.87773753 26150
LEMUR-2-MARIO-SOUSA     
1 67365U 26004C   26187.47704209  .00004355  00000+0  47199-3 0  9995
2 67365  97.7998 185.7354 0010218  81.3584 278.8791 14.88679800 26160
LEMUR-2-SONNENBLUME     
1 67367U 26004E   26187.47834203  .00003099  00000+0  33971-3 0  9992
2 67367  97.7993 185.7134 0009745  82.4268 277.8056 14.88423791 26166
LEMUR-2-WOBLER          
1 67368U 26004F   26186.99851875  .00004672  00000+0  50618-3 0  9998
2 67368  97.8043 185.3822 0009917  75.1148 285.1167 14.88654041 26092
LEMUR-2-GRAM-E-SUE      
1 67370U 26004H   26187.46056367  .00002780  00000+0  30445-3 0  9991
2 67370  97.7978 185.7122 0008854  84.5797 275.6430 14.88563090 26169
LEMUR-2-KATIE           
1 67387U 26004AA  26186.95716061  .00006145  00000+0  63953-3 0  9995
2 67387  97.8044 185.7372 0004277  55.0547 305.1072 14.90196965 26101
LEMUR-2-HCS-BAZUS       
1 67388U 26004AB  26186.95564911  .00003338  00000+0  34980-3 0  9990
2 67388  97.8031 185.7152 0003673  54.0963 306.0595 14.90229624 26103
